[{"OBJECT_NAME":"LOGSATS","OBJECT_ID":"2025-009CJ","EPOCH":"2026-03-09T17:25:39.487008","MEAN_MOTION":15.72310294,"ECCENTRICITY":0.00053927,"INCLINATION":97.3907,"RA_OF_ASC_NODE":158.8419,"ARG_OF_PERICENTER":263.6729,"MEAN_ANOMALY":96.392,"EPHEMERIS_TYPE":0,"CLASSIFICATION_TYPE":"U","NORAD_CAT_ID":62689,"ELEMENT_SET_NO":999,"REV_AT_EPOCH":6421,"BSTAR":0.0019540727,"MEAN_MOTION_DOT":0.00266017,"MEAN_MOTION_DDOT":0},{"OBJECT_NAME":"STARLINK-11646 [DTC]","OBJECT_ID":"2025-048D","EPOCH":"2026-03-09T16:00:03.000096","MEAN_MOTION":15.70744486,"ECCENTRICITY":0.0001349,"INCLINATION":43.0002,"RA_OF_ASC_NODE":319.6761,"ARG_OF_PERICENTER":245.5642,"MEAN_ANOMALY":39.8364,"EPHEMERIS_TYPE":0,"CLASSIFICATION_TYPE":"U","NORAD_CAT_ID":63186,"ELEMENT_SET_NO":999,"REV_AT_EPOCH":599,"BSTAR":0.0012974286,"MEAN_MOTION_DOT":0.00168772,"MEAN_MOTION_DDOT":0}]
